STARLINK-31732          
1 60099U 24117J   25288.44155216  .00001168  00000+0  51555-4 0  9992
2 60099  53.1619 351.4069 0001248  96.0489 264.0654 15.30190357 74653
STARLINK-31996          
1 60100U 24117K   25288.58590404  .00006336  00000+0  22585-3 0  9994
2 60100  53.1605 350.8867 0001224  93.0735 267.0406 15.30204362 74677
STARLINK-31999          
1 60101U 24117L   25288.50065565  .00009616  00000+0  33695-3 0  9990
2 60101  53.1616 351.7788 0001653 117.7434 242.3735 15.30144004 74653
STARLINK-31954          
1 60102U 24117M   25288.49432823 -.00001523  00000+0 -39327-4 0  9994
2 60102  53.1614 351.7393 0001290 105.9391 254.1752 15.30174901 74651
STARLINK-32013          
1 60103U 24117N   25288.55646903  .00000612  00000+0  32782-4 0  9992
2 60103  53.1616 351.4150 0001254 106.1533 253.9606 15.30192386 74666
STARLINK-32009          
1 60104U 24117P   25288.50381559  .00004085  00000+0  14998-3 0  9997
2 60104  53.1609 351.7739 0001304  86.3736 273.7414 15.30200107 74652
STARLINK-32018          
1 60105U 24117Q   25288.61227936  .00002115  00000+0  83505-4 0  9991
2 60105  53.1613 351.0524 0001153  92.0028 268.1104 15.30197816 74671
STARLINK-32045          
1 60106U 24117R   25288.61545495  .00015860  00000+0  54611-3 0  9991
2 60106  53.1607 351.0721 0001694 101.9623 258.1568 15.30220229 74673
STARLINK-32035          
1 60107U 24117S   25288.47110642  .00007289  00000+0  25796-3 0  9996
2 60107  53.1578 351.5928 0001119  82.9037 277.2091 15.30202574 74658
STARLINK-32042          
1 60108U 24117T   25288.39629345  .00003526  00000+0  13119-3 0  9999
2 60108  53.1605 351.8366 0001162  82.3274 277.7859 15.30179293 74641
STARLINK-32040          
1 60109U 24117U   25288.44366366  .00002514  00000+0  97026-4 0  9993
2 60109  53.1624 351.4249 0001396  92.0909 268.0251 15.30185281 74655
STARLINK-32001          
1 60110U 24117V   25288.58273421  .00001496  00000+0  62648-4 0  9999
2 60110  53.1610 350.8672 0001310  85.5188 274.5963 15.30190027 74675
STARLINK-32015          
1 60111U 24117W   25288.57639747  .00001989  00000+0  79269-4 0  9990
2 60111  53.1615 350.8255 0001198  94.0272 266.0866 15.30197109 74677
STARLINK-32024          
1 60112U 24117X   25288.45844058  .00007912  00000+0  27895-3 0  9990
2 60112  53.1603 351.5125 0001274 101.1059 259.0085 15.30201667 74655
STARLINK-11201 [DTC]    
1 60113U 24118A   25288.23463864  .00005945  00000+0  53877-4 0  9994
2 60113  53.1570 218.6191 0001026  86.2777 273.8359 15.69715062 75144
STARLINK-11198 [DTC]    
1 60114U 24118B   25288.22972297 -.00000432  00000+0  12951-5 0  9995
2 60114  53.1586 218.5889 0001108  93.0294 267.0851 15.69720657 75144
