[{"OBJECT_NAME":"STARLINK-31732","OBJECT_ID":"2024-117J","EPOCH":"2025-10-15T10:35:50.106624","MEAN_MOTION":15.30190357,"ECCENTRICITY":0.00012487,"INCLINATION":53.1619,"RA_OF_ASC_NODE":351.4069,"ARG_OF_PERICENTER":96.0489,"MEAN_ANOMALY":264.0654,"EPHEMERIS_TYPE":0,"CLASSIFICATION_TYPE":"U","NORAD_CAT_ID":60099,"ELEMENT_SET_NO":999,"REV_AT_EPOCH":7465,"BSTAR":5.1554892e-5,"MEAN_MOTION_DOT":1.168e-5,"MEAN_MOTION_DDOT":0},{"OBJECT_NAME":"STARLINK-31996","OBJECT_ID":"2024-117K","EPOCH":"2025-10-15T14:03:42.109056","MEAN_MOTION":15.30204362,"ECCENTRICITY":0.00012248,"INCLINATION":53.1605,"RA_OF_ASC_NODE":350.8867,"ARG_OF_PERICENTER":93.0735,"MEAN_ANOMALY":267.0406,"EPHEMERIS_TYPE":0,"CLASSIFICATION_TYPE":"U","NORAD_CAT_ID":60100,"ELEMENT_SET_NO":999,"REV_AT_EPOCH":7467,"BSTAR":0.00022584665,"MEAN_MOTION_DOT":6.336e-5,"MEAN_MOTION_DDOT":0},{"OBJECT_NAME":"STARLINK-31999","OBJECT_ID":"2024-117L","EPOCH":"2025-10-15T12:00:56.648160","MEAN_MOTION":15.30144004,"ECCENTRICITY":0.00016537,"INCLINATION":53.1616,"RA_OF_ASC_NODE":351.7788,"ARG_OF_PERICENTER":117.7434,"MEAN_ANOMALY":242.3735,"EPHEMERIS_TYPE":0,"CLASSIFICATION_TYPE":"U","NORAD_CAT_ID":60101,"ELEMENT_SET_NO":999,"REV_AT_EPOCH":7465,"BSTAR":0.00033694888,"MEAN_MOTION_DOT":9.616e-5,"MEAN_MOTION_DDOT":0},{"OBJECT_NAME":"STARLINK-31954","OBJECT_ID":"2024-117M","EPOCH":"2025-10-15T11:51:49.959072","MEAN_MOTION":15.30174901,"ECCENTRICITY":0.000129,"INCLINATION":53.1614,"RA_OF_ASC_NODE":351.7393,"ARG_OF_PERICENTER":105.9391,"MEAN_ANOMALY":254.1752,"EPHEMERIS_TYPE":0,"CLASSIFICATION_TYPE":"U","NORAD_CAT_ID":60102,"ELEMENT_SET_NO":999,"REV_AT_EPOCH":7465,"BSTAR":-3.9326764e-5,"MEAN_MOTION_DOT":-1.523e-5,"MEAN_MOTION_DDOT":0},{"OBJECT_NAME":"STARLINK-32013","OBJECT_ID":"2024-117N","EPOCH":"2025-10-15T13:21:18.924192","MEAN_MOTION":15.30192386,"ECCENTRICITY":0.0001254,"INCLINATION":53.1616,"RA_OF_ASC_NODE":351.415,"ARG_OF_PERICENTER":106.1533,"MEAN_ANOMALY":253.9606,"EPHEMERIS_TYPE":0,"CLASSIFICATION_TYPE":"U","NORAD_CAT_ID":60103,"ELEMENT_SET_NO":999,"REV_AT_EPOCH":7466,"BSTAR":3.2781653e-5,"MEAN_MOTION_DOT":6.12e-6,"MEAN_MOTION_DDOT":0},{"OBJECT_NAME":"STARLINK-32009","OBJECT_ID":"2024-117P","EPOCH":"2025-10-15T12:05:29.666976","MEAN_MOTION":15.30200107,"ECCENTRICITY":0.00013042,"INCLINATION":53.1609,"RA_OF_ASC_NODE":351.7739,"ARG_OF_PERICENTER":86.3736,"MEAN_ANOMALY":273.7414,"EPHEMERIS_TYPE":0,"CLASSIFICATION_TYPE":"U","NORAD_CAT_ID":60104,"ELEMENT_SET_NO":999,"REV_AT_EPOCH":7465,"BSTAR":0.00014997839,"MEAN_MOTION_DOT":4.085e-5,"MEAN_MOTION_DDOT":0},{"OBJECT_NAME":"STARLINK-32018","OBJECT_ID":"2024-117Q","EPOCH":"2025-10-15T14:41:40.936704","MEAN_MOTION":15.30197816,"ECCENTRICITY":0.00011531,"INCLINATION":53.1613,"RA_OF_ASC_NODE":351.0524,"ARG_OF_PERICENTER":92.0028,"MEAN_ANOMALY":268.1104,"EPHEMERIS_TYPE":0,"CLASSIFICATION_TYPE":"U","NORAD_CAT_ID":60105,"ELEMENT_SET_NO":999,"REV_AT_EPOCH":7467,"BSTAR":8.3505079e-5,"MEAN_MOTION_DOT":2.115e-5,"MEAN_MOTION_DDOT":0},{"OBJECT_NAME":"STARLINK-32045","OBJECT_ID":"2024-117R","EPOCH":"2025-10-15T14:46:15.307680","MEAN_MOTION":15.30220229,"ECCENTRICITY":0.00016948,"INCLINATION":53.1607,"RA_OF_ASC_NODE":351.0721,"ARG_OF_PERICENTER":101.9623,"MEAN_ANOMALY":258.1568,"EPHEMERIS_TYPE":0,"CLASSIFICATION_TYPE":"U","NORAD_CAT_ID":60106,"ELEMENT_SET_NO":999,"REV_AT_EPOCH":7467,"BSTAR":0.00054610815,"MEAN_MOTION_DOT":0.0001586,"MEAN_MOTION_DDOT":0},{"OBJECT_NAME":"STARLINK-32035","OBJECT_ID":"2024-117S","EPOCH":"2025-10-15T11:18:23.594688","MEAN_MOTION":15.30202574,"ECCENTRICITY":0.00011198,"INCLINATION":53.1578,"RA_OF_ASC_NODE":351.5928,"ARG_OF_PERICENTER":82.9037,"MEAN_ANOMALY":277.2091,"EPHEMERIS_TYPE":0,"CLASSIFICATION_TYPE":"U","NORAD_CAT_ID":60107,"ELEMENT_SET_NO":999,"REV_AT_EPOCH":7465,"BSTAR":0.00025796361,"MEAN_MOTION_DOT":7.289e-5,"MEAN_MOTION_DDOT":0},{"OBJECT_NAME":"STARLINK-32042","OBJECT_ID":"2024-117T","EPOCH":"2025-10-15T09:30:39.754080","MEAN_MOTION":15.30179293,"ECCENTRICITY":0.00011621,"INCLINATION":53.1605,"RA_OF_ASC_NODE":351.8366,"ARG_OF_PERICENTER":82.3274,"MEAN_ANOMALY":277.7859,"EPHEMERIS_TYPE":0,"CLASSIFICATION_TYPE":"U","NORAD_CAT_ID":60108,"ELEMENT_SET_NO":999,"REV_AT_EPOCH":7464,"BSTAR":0.00013119297,"MEAN_MOTION_DOT":3.526e-5,"MEAN_MOTION_DDOT":0},{"OBJECT_NAME":"STARLINK-32040","OBJECT_ID":"2024-117U","EPOCH":"2025-10-15T10:38:52.540224","MEAN_MOTION":15.30185281,"ECCENTRICITY":0.0001396,"INCLINATION":53.1624,"RA_OF_ASC_NODE":351.4249,"ARG_OF_PERICENTER":92.0909,"MEAN_ANOMALY":268.0251,"EPHEMERIS_TYPE":0,"CLASSIFICATION_TYPE":"U","NORAD_CAT_ID":60109,"ELEMENT_SET_NO":999,"REV_AT_EPOCH":7465,"BSTAR":9.7026484e-5,"MEAN_MOTION_DOT":2.514e-5,"MEAN_MOTION_DDOT":0},{"OBJECT_NAME":"STARLINK-32001","OBJECT_ID":"2024-117V","EPOCH":"2025-10-15T13:59:08.235744","MEAN_MOTION":15.30190027,"ECCENTRICITY":0.00013104,"INCLINATION":53.161,"RA_OF_ASC_NODE":350.8672,"ARG_OF_PERICENTER":85.5188,"MEAN_ANOMALY":274.5963,"EPHEMERIS_TYPE":0,"CLASSIFICATION_TYPE":"U","NORAD_CAT_ID":60110,"ELEMENT_SET_NO":999,"REV_AT_EPOCH":7467,"BSTAR":6.2648061e-5,"MEAN_MOTION_DOT":1.496e-5,"MEAN_MOTION_DDOT":0},{"OBJECT_NAME":"STARLINK-32015","OBJECT_ID":"2024-117W","EPOCH":"2025-10-15T13:50:00.741408","MEAN_MOTION":15.30197109,"ECCENTRICITY":0.00011987,"INCLINATION":53.1615,"RA_OF_ASC_NODE":350.8255,"ARG_OF_PERICENTER":94.0272,"MEAN_ANOMALY":266.0866,"EPHEMERIS_TYPE":0,"CLASSIFICATION_TYPE":"U","NORAD_CAT_ID":60111,"ELEMENT_SET_NO":999,"REV_AT_EPOCH":7467,"BSTAR":7.9268764e-5,"MEAN_MOTION_DOT":1.989e-5,"MEAN_MOTION_DDOT":0},{"OBJECT_NAME":"STARLINK-32024","OBJECT_ID":"2024-117X","EPOCH":"2025-10-15T11:00:09.266112","MEAN_MOTION":15.30201667,"ECCENTRICITY":0.00012742,"INCLINATION":53.1603,"RA_OF_ASC_NODE":351.5125,"ARG_OF_PERICENTER":101.1059,"MEAN_ANOMALY":259.0085,"EPHEMERIS_TYPE":0,"CLASSIFICATION_TYPE":"U","NORAD_CAT_ID":60112,"ELEMENT_SET_NO":999,"REV_AT_EPOCH":7465,"BSTAR":0.00027895055,"MEAN_MOTION_DOT":7.912e-5,"MEAN_MOTION_DDOT":0},{"OBJECT_NAME":"STARLINK-11201 [DTC]","OBJECT_ID":"2024-118A","EPOCH":"2025-10-15T05:37:52.778496","MEAN_MOTION":15.69715062,"ECCENTRICITY":0.00010269,"INCLINATION":53.157,"RA_OF_ASC_NODE":218.6191,"ARG_OF_PERICENTER":86.2777,"MEAN_ANOMALY":273.8359,"EPHEMERIS_TYPE":0,"CLASSIFICATION_TYPE":"U","NORAD_CAT_ID":60113,"ELEMENT_SET_NO":999,"REV_AT_EPOCH":7514,"BSTAR":5.3877098e-5,"MEAN_MOTION_DOT":5.945e-5,"MEAN_MOTION_DDOT":0},{"OBJECT_NAME":"STARLINK-11198 [DTC]","OBJECT_ID":"2024-118B","EPOCH":"2025-10-15T05:30:48.064608","MEAN_MOTION":15.69720657,"ECCENTRICITY":0.0001108,"INCLINATION":53.1586,"RA_OF_ASC_NODE":218.5889,"ARG_OF_PERICENTER":93.0294,"MEAN_ANOMALY":267.0851,"EPHEMERIS_TYPE":0,"CLASSIFICATION_TYPE":"U","NORAD_CAT_ID":60114,"ELEMENT_SET_NO":999,"REV_AT_EPOCH":7514,"BSTAR":1.295109e-6,"MEAN_MOTION_DOT":-4.32e-6,"MEAN_MOTION_DDOT":0}]
